CHUANGXIN 1-02 (CX-1-02)
1 33434U 08056B   26160.32178671  .00000165  00000+0  80470-4 0  9990
2 33434  98.6140 186.6670 0014528 158.6938 201.4852 14.30151991917497
STARS (KUKAI)           
1 33498U 09002G   26160.12430904  .00003330  00000+0  30470-3 0  9991
2 33498  98.1538 107.1039 0008213 185.3722 174.7411 14.95691901937274
KKS-1 (KISEKI)          
1 33499U 09002H   26160.29554102  .00001247  00000+0  15994-3 0  9996
2 33499  98.1193  82.6129 0007003 325.5700  34.5058 14.83103543935027
UK-DMC 2                
1 35683U 09041C   26159.88757111  .00001104  00000+0  16742-3 0  9998
2 35683  97.8828 295.0575 0001296  72.8745 287.2607 14.76019080905342
OCEANSAT-2              
1 35931U 09051A   26160.26462655  .00000080  00000+0  80352-4 0  9996
2 35931  98.2324 147.9064 0014682 260.2803  99.6705 13.99664272878226
SWISSCUBE               
1 35932U 09051B   26160.23220342  .00000884  00000+0  18430-3 0  9998
2 35932  98.4042  67.9819 0005536 231.7827 128.2876 14.62466323887992
BEESAT-1                
1 35933U 09051C   26160.30595957  .00000735  00000+0  15741-3 0  9991
2 35933  98.3972  67.7088 0003910 248.2700 111.8085 14.61707654888037
ITUPSAT1                
1 35935U 09051E   26160.28995216  .00000671  00000+0  14856-3 0  9997
2 35935  98.4055  66.8927 0006078 263.4866  96.5642 14.60428780887580
DMSP 5D-3 F18 (USA 210) 
1 35951U 09057A   26160.29159039  .00000239  00000+0  14678-3 0  9999
2 35951  98.9034 141.0780 0009866 274.7695  85.2351 14.14892267858478
PROBA-2                 
1 36037U 09059B   26160.26250232  .00000167  00000+0  49492-4 0  9994
2 36037  98.2451 343.7253 0012214 309.0408  50.9701 14.54858955880373
YAOGAN-7                
1 36110U 09069A   26160.23563062  .00000446  00000+0  68769-4 0  9990
2 36110  98.0082  46.1515 0025935  66.2707 294.1220 14.78001701888456
XIWANG-1 (HOPE-1)       
1 36122U 09072B   26160.26397421 -.00000243  00000+0 -52091-3 0  9991
2 36122 100.4025 114.2227 0006801 251.7914 108.2459 13.16438341791966
COSMOS 2463             
1 36519U 10017A   26160.31074568  .00000041  00000+0  28207-4 0  9999
2 36519  82.9608 255.4923 0036952 150.1314 264.6475 13.71665237806851
CARTOSAT-2B             
1 36795U 10035A   26160.28694785  .00000377  00000+0  58534-4 0  9998
2 36795  97.9954 210.8869 0010545 210.7445 149.3149 14.78650533858685
TISAT 1                 
1 36799U 10035E   26159.81960297  .00020138  00000+0  66607-3 0  9999
2 36799  98.0700 105.6282 0000185 170.3248 189.7995 15.31390446866423
YAOGAN-10               
1 36834U 10038A   26160.33356574  .00001202  00000+0  14617-3 0  9993
2 36834  97.8983 183.8009 0001660  88.3539 327.1639 14.85324648856047
SHIJIAN-6 04B (SJ-6 04B)
1 37180U 10051B   26160.28125190  .00000944  00000+0  82359-4 0  9996
2 37180  97.8686 165.6110 0009108 339.2190  20.8661 14.99296413854491
FENGYUN 3B              
1 37214U 10059A   26160.31316152  .00000010  00000+0  28528-4 0  9998
2 37214  98.9623 206.2942 0021460 206.6933 217.4674 14.14840085806317
COSMO-SKYMED 4          
1 37216U 10060A   26159.39731509  .00000510  00000+0  70656-4 0  9999
2 37216  97.8890 343.1246 0001413  83.8256 276.3118 14.82162251843269
O/OREOS (USA 219)       
1 37224U 10062C   26160.22668023  .00002113  00000+0  20525-3 0  9994
2 37224  71.9704  98.3700 0012385  80.4823 279.7746 14.93710062115450
RESOURCESAT-2           
1 37387U 11015A   26160.27653411  .00000049  00000+0  42583-4 0  9998
2 37387  98.7644 227.7727 0010130 281.0336  78.9702 14.21604715785059
YOUTHSAT                
1 37388U 11015B   26160.21666758  .00000176  00000+0  91549-4 0  9998
2 37388  98.3678 134.6303 0014725  10.5771   5.2837 14.25627010786501
APRIZESAT 6             
1 37793U 11044F   26160.29805118  .00000648  00000+0  98518-4 0  9990
2 37793  98.2371  70.6364 0044380 110.5168   4.9826 14.76904112795980
JUGNU                   
1 37839U 11058B   26160.26883713  .00000405  00000+0  72297-4 0  9997
2 37839  19.9621 356.5333 0018549 349.0526 166.6651 14.13774628757906
SRMSAT                  
1 37841U 11058D   26160.24317178  .00000362  00000+0  52709-4 0  9993
2 37841  19.9710 107.5505 0011939 116.6749 358.0957 14.11573893756694
